{
"type": "FeatureCollection",
"name": "batch_5_corrected_chip_stats",
"crs": { "type": "name", "properties": { "name": "urn:ogc:def:crs:EPSG::6514" } },
"features": [
{ "type": "Feature", "properties": { "idx": 0, "inlier_count": 3346, "gcp_count": 3346, "warp_success": true }, "geometry": { "type": "Polygon", "coordinates": [ [ [ 254576.308213395503117, 283154.726294683816377 ], [ 254576.308213395503117, 283183.104058532218914 ], [ 254614.145231860020431, 283183.104058532218914 ], [ 254614.145231860020431, 283154.726294683816377 ], [ 254576.308213395503117, 283154.726294683816377 ] ] ] } },
{ "type": "Feature", "properties": { "idx": 1, "inlier_count": 3761, "gcp_count": 3761, "warp_success": true }, "geometry": { "type": "Polygon", "coordinates": [ [ [ 254614.145231860049535, 283154.726294683816377 ], [ 254614.145231860049535, 283183.104058532218914 ], [ 254651.982250324566849, 283183.104058532218914 ], [ 254651.982250324566849, 283154.726294683816377 ], [ 254614.145231860049535, 283154.726294683816377 ] ] ] } },
{ "type": "Feature", "properties": { "idx": 2, "inlier_count": 2292, "gcp_count": 2292, "warp_success": true }, "geometry": { "type": "Polygon", "coordinates": [ [ [ 254651.982250324595952, 283154.726294683816377 ], [ 254651.982250324595952, 283183.104058532218914 ], [ 254689.819268789113266, 283183.104058532218914 ], [ 254689.819268789113266, 283154.726294683816377 ], [ 254651.982250324595952, 283154.726294683816377 ] ] ] } },
{ "type": "Feature", "properties": { "idx": 3, "inlier_count": 3834, "gcp_count": 3834, "warp_success": true }, "geometry": { "type": "Polygon", "coordinates": [ [ [ 254576.308213395503117, 283183.104058532218914 ], [ 254576.308213395503117, 283211.481822380621452 ], [ 254614.145231860020431, 283211.481822380621452 ], [ 254614.145231860020431, 283183.104058532218914 ], [ 254576.308213395503117, 283183.104058532218914 ] ] ] } },
{ "type": "Feature", "properties": { "idx": 4, "inlier_count": 4252, "gcp_count": 4252, "warp_success": true }, "geometry": { "type": "Polygon", "coordinates": [ [ [ 254614.145231860049535, 283183.104058532218914 ], [ 254614.145231860049535, 283211.481822380621452 ], [ 254651.982250324566849, 283211.481822380621452 ], [ 254651.982250324566849, 283183.104058532218914 ], [ 254614.145231860049535, 283183.104058532218914 ] ] ] } },
{ "type": "Feature", "properties": { "idx": 5, "inlier_count": 2628, "gcp_count": 2628, "warp_success": true }, "geometry": { "type": "Polygon", "coordinates": [ [ [ 254651.982250324595952, 283183.104058532218914 ], [ 254651.982250324595952, 283211.481822380621452 ], [ 254689.819268789113266, 283211.481822380621452 ], [ 254689.819268789113266, 283183.104058532218914 ], [ 254651.982250324595952, 283183.104058532218914 ] ] ] } },
{ "type": "Feature", "properties": { "idx": 6, "inlier_count": 3816, "gcp_count": 3816, "warp_success": true }, "geometry": { "type": "Polygon", "coordinates": [ [ [ 254576.308213395503117, 283211.481822380621452 ], [ 254576.308213395503117, 283239.859586229023989 ], [ 254614.145231860020431, 283239.859586229023989 ], [ 254614.145231860020431, 283211.481822380621452 ], [ 254576.308213395503117, 283211.481822380621452 ] ] ] } },
{ "type": "Feature", "properties": { "idx": 7, "inlier_count": 4243, "gcp_count": 4243, "warp_success": true }, "geometry": { "type": "Polygon", "coordinates": [ [ [ 254614.145231860049535, 283211.481822380621452 ], [ 254614.145231860049535, 283239.859586229023989 ], [ 254651.982250324566849, 283239.859586229023989 ], [ 254651.982250324566849, 283211.481822380621452 ], [ 254614.145231860049535, 283211.481822380621452 ] ] ] } },
{ "type": "Feature", "properties": { "idx": 8, "inlier_count": 2618, "gcp_count": 2618, "warp_success": true }, "geometry": { "type": "Polygon", "coordinates": [ [ [ 254651.982250324595952, 283211.481822380621452 ], [ 254651.982250324595952, 283239.859586229023989 ], [ 254689.819268789113266, 283239.859586229023989 ], [ 254689.819268789113266, 283211.481822380621452 ], [ 254651.982250324595952, 283211.481822380621452 ] ] ] } },
{ "type": "Feature", "properties": { "idx": 9, "inlier_count": 82, "gcp_count": 82, "warp_success": true }, "geometry": { "type": "Polygon", "coordinates": [ [ [ 254576.308213395503117, 283239.859586229023989 ], [ 254576.308213395503117, 283268.237350077426527 ], [ 254614.145231860020431, 283268.237350077426527 ], [ 254614.145231860020431, 283239.859586229023989 ], [ 254576.308213395503117, 283239.859586229023989 ] ] ] } },
{ "type": "Feature", "properties": { "idx": 10, "inlier_count": 872, "gcp_count": 872, "warp_success": true }, "geometry": { "type": "Polygon", "coordinates": [ [ [ 254614.145231860049535, 283239.859586229023989 ], [ 254614.145231860049535, 283268.237350077426527 ], [ 254651.982250324566849, 283268.237350077426527 ], [ 254651.982250324566849, 283239.859586229023989 ], [ 254614.145231860049535, 283239.859586229023989 ] ] ] } },
{ "type": "Feature", "properties": { "idx": 11, "inlier_count": 220, "gcp_count": 220, "warp_success": true }, "geometry": { "type": "Polygon", "coordinates": [ [ [ 254651.982250324595952, 283239.859586229023989 ], [ 254651.982250324595952, 283268.237350077426527 ], [ 254689.819268789113266, 283268.237350077426527 ], [ 254689.819268789113266, 283239.859586229023989 ], [ 254651.982250324595952, 283239.859586229023989 ] ] ] } }
]
}
